ONEWEB-0645             
1 55809U 23029P   25195.55319080 -.00000047  00000+0 -14927-3 0  9994
2 55809  87.9209  12.1113 0002152  95.1307 265.0072 13.19726304114372
ONEWEB-0646             
1 55810U 23029Q   25195.50739269  .00000095  00000+0  20586-3 0  9995
2 55810  87.9201  12.1114 0002016  85.5384 274.5979 13.19724140114359
ONEWEB-0648             
1 55811U 23029R   25195.53000434  .00000111  00000+0  26616-3 0  9993
2 55811  87.9052 356.8945 0002788  92.8256 267.3193 13.14501762115749
ONEWEB-0649             
1 55812U 23029S   25195.54609372 -.00000046  00000+0 -14634-3 0  9997
2 55812  87.9219  12.0950 0002346  90.9247 269.2155 13.19725199114397
ONEWEB-0650             
1 55813U 23029T   25195.54135551 -.00000019  00000+0 -80347-4 0  9996
2 55813  87.9223  12.1060 0002018  87.6995 272.4368 13.19725551114366
ONEWEB-0652             
1 55814U 23029U   25195.73933833  .00000246  00000+0  62862-3 0  9998
2 55814  87.9049 356.8626 0001676  94.9554 265.1767 13.14503507115723
ONEWEB-0653             
1 55815U 23029V   25195.49511953  .00000012  00000+0 -21906-5 0  9995
2 55815  87.9052 356.9010 0001775 101.2451 258.8878 13.14503266115032
ONEWEB-0654             
1 55816U 23029W   25195.49035784 -.00000137  00000+0 -40522-3 0  9991
2 55816  87.9052 356.9016 0001454 101.0805 259.0488 13.14503253115052
